spkid,full_name,pdes,name,prefix,neo,sats,H,M1,M2,K1,K2,PC,diameter,extent,albedo,rot_per,GM,H_sigma,diameter_sigma,orbit_id,epoch,epoch_mjd,epoch_cal,equinox,e,a,q,i,om,w,ma,ad,n,tp,tp_cal,per,per_y,moid,moid_ld,moid_jup,t_jup,sigma_e,sigma_a,sigma_q,sigma_i,sigma_om,sigma_w,sigma_ma,sigma_ad,sigma_n,sigma_tp,sigma_per,class,producer,data_arc,first_obs,last_obs,n_obs_used,n_del_obs_used,n_dop_obs_used,condition_code,rms,two_body,A1,A1_sigma,A2,A2_sigma,A3,A3_sigma,DT,DT_sigma
1003705,C/2019 Y5 (PANSTARRS),2019 Y5,PANSTARRS,C,,0,,13.0,,7.25,,,,,,,,,,JPL 12,2459046.5,59046,2020-07-16.0,J2000,0.9939,808.1,4.914,82.83,51.78,303.5,0.01,1611.37,4.29e-05,2458713.67,2019-08-18.1,8390000.0,23000.0,4.3,1670.0,1.1,0.349,1.1e-05,1.5,1.3e-05,5.4e-05,2.1e-05,0.00033,3.8e-05,2.9,1.2e-07,0.0023,23000.0,COM,Otto Matic,668.0,2019-09-11,2021-07-10,70,,,,0.43806,,,,,,,,,
1003657,C/2020 A2 (Iwamoto),2020 A2,Iwamoto,C,,0,,15.1,17.2,10.75,5.0,0.03,,,,,,,,JPL 22,2458902.5,58902,2020-02-23.0,J2000,0.9991,1060.0,0.978,120.75,286.38,68.21,0.0,2119.84,2.854e-05,2458856.82,2020-01-08.3,12600000.0,34500.0,0.313,122.0,1.13,-0.622,3.9e-05,45.0,1.1e-05,9.1e-05,0.00024,0.0012,8.2e-05,89.0,1.8e-06,0.0012,790000.0,COM,Otto Matic,104.0,2020-01-09,2020-04-22,529,,,,0.75021,,,,,,,,,
1003658,C/2020 A3 (ATLAS),2020 A3,ATLAS,C,,0,,6.8,,11.25,,,,,,,,,,JPL 13,2458781.5,58781,2019-10-25.0,J2000,0.9989,5255.0,5.767,146.7,120.79,268.41,0.0,10504.68,2.587e-06,2458663.36,2019-06-28.8,139000000.0,381000.0,4.96,1930.0,2.76,-2.49,1.8e-05,85.0,1.4e-05,3.5e-05,0.00011,0.00024,7.5e-06,170.0,6.3e-08,0.0025,3400000.0,COM,Otto Matic,1368.0,2017-05-16,2021-02-12,94,,,,0.54966,,,,,,,,,
1003867,P/2020 A4 (PANSTARRS-Lemmon),2020 A4,PANSTARRS-Lemmon,P,,0,,15.6,,8.75,,,,,,,,,,JPL 1,2458882.5,58882,2020-02-03.0,J2000,0.6537,8.208,2.843,24.99,312.43,144.88,3.03,13.57,0.04191,2458810.22,2019-11-22.7,8590.0,23.5,1.9,738.0,1.69,2.36,1e-05,0.00027,1.9e-05,0.00015,0.00011,0.00093,0.00026,0.00045,2.1e-06,0.003,0.43,JFc,Otto Matic,459.0,2019-10-14,2021-01-15,106,,,3.0,0.39035,,,,,,,,,
1003660,C/2020 B2 (Lemmon),2020 B2,Lemmon,C,,0,,17.2,,4.5,,,,,,,,,,JPL 6,2458883.5,58883,2020-02-04.0,J2000,0.9592,67.88,2.768,55.7,354.34,143.63,0.02,132.99,0.001762,2458874.79,2020-01-26.2,204000.0,559.0,1.89,737.0,2.3,1.23,0.00011,0.18,8.8e-05,0.0019,0.00083,0.004,7.9e-05,0.35,7e-06,0.012,810.0,COM,Otto Matic,100.0,2020-01-19,2020-04-28,106,,,4.0,0.39447,,,,,,,,,
1003661,C/2020 B3 (Rankin),2020 B3,Rankin,C,,0,,14.6,,4.5,,,,,,,,,,JPL 15,2458921.5,58921,2020-03-13.0,J2000,0.9983,1931.0,3.344,20.7,185.82,325.09,0.0,3858.72,1.162e-05,2458776.39,2019-10-19.8,31000000.0,84900.0,2.38,927.0,1.06,2.12,5.1e-05,57.0,5.7e-05,0.00043,7.1e-05,0.0032,7.4e-05,110.0,5.1e-07,0.013,1400000.0,JFc,Otto Matic,194.0,2019-11-13,2020-05-25,185,,,,0.54498,,,,,,,,,
1003838,P/2020 B4 (Sheppard),2020 B4,Sheppard,P,,0,,7.6,,13.75,,,,,,,,,,JPL 3,2459004.5,59004,2020-06-04.0,J2000,0.1925,7.974,6.439,11.6,186.0,342.46,336.39,9.51,0.04377,2459543.81,2021-11-25.3,8220.0,22.5,5.45,2120.0,1.03,3.03,3.2e-05,0.00043,9.9e-05,0.0001,0.00057,0.007,0.0066,0.00052,3.6e-06,0.11,0.67,CTc,Otto Matic,1545.0,2018-01-15,2022-04-09,20,,,4.0,0.22425,,,,,,,,,
1003666,C/2020 F2 (ATLAS),2020 F2,ATLAS,C,,0,,6.3,8.7,7.25,5.0,0.03,,,,,,,,JPL 93,2459618.5,59618,2022-02-08.0,J2000,1.0046,-1900.0,8.817,163.58,250.27,48.36,-0.0,,1.19e-05,2459776.49,2022-07-15.9,,,7.84,3050.0,3.59,,8.6e-06,3.5,1.2e-05,1.4e-05,4.3e-05,0.00012,5.2e-06,,3.3e-08,0.0021,,HYP,Otto Matic,1742.0,2019-05-27,2024-03-03,1888,,,,0.41148,,,,,,,,,
1003667,C/2020 F3 (NEOWISE),2020 F3,NEOWISE,C,,0,,12.1,,12.25,,,,,,,,,,JPL 30,2459036.5,59036,2020-07-06.0,J2000,0.9992,358.5,0.295,128.94,61.01,37.28,0.0,716.64,0.0001452,2459034.18,2020-07-03.6,2480000.0,6790.0,0.363,141.0,0.813,-0.408,8.5e-07,0.37,2.1e-07,2.8e-05,4.3e-05,3.1e-05,5.3e-07,0.74,2.3e-07,2e-05,3900.0,COM,Otto Matic,438.0,2020-03-27,2021-06-08,1313,,,,0.38872,,,,,,,,,
1003669,C/2020 F5 (MASTER),2020 F5,MASTER,C,,0,,7.2,9.7,7.75,5.0,0.03,,,,,,,,JPL 89,2459664.5,59664,2022-03-26.0,J2000,0.9954,936.8,4.325,52.25,350.53,311.0,0.01,1869.24,3.438e-05,2459295.99,2021-03-22.4,10500000.0,28700.0,3.51,1370.0,0.162,1.58,4.2e-06,0.85,2.8e-06,1.4e-05,8.6e-06,6.7e-05,1.7e-05,1.7,4.7e-08,0.00051,14000.0,COM,Otto Matic,1401.0,2020-03-16,2024-01-16,1859,,,,0.58019,,,,,,,,,
1003670,C/2020 F6 (PANSTARRS),2020 F6,PANSTARRS,C,,0,,9.7,,16.5,,,,,,,,,,JPL 14,2458994.5,58994,2020-05-25.0,J2000,0.9908,381.8,3.511,174.58,207.88,344.59,0.01,760.12,0.0001321,2458951.07,2020-04-11.5,2730000.0,7460.0,2.5,974.0,0.332,-2.29,6.8e-05,2.8,1.6e-05,0.00011,0.0003,0.0015,6.3e-05,5.6,1.5e-06,0.007,30000.0,COM,Otto Matic,297.0,2020-03-21,2021-01-12,102,,,,0.28967,,,,,,,,,
1003772,C/2020 F7 (Lemmon),2020 F7,Lemmon,C,,0,,6.6,,10.75,,,,,,,,,,JPL 36,2459192.5,59192,2020-12-09.0,J2000,0.9931,772.7,5.332,93.95,321.89,227.99,359.98,1540.13,4.588e-05,2459532.61,2021-11-14.1,7850000.0,21500.0,4.63,1800.0,0.963,-0.19,6.1e-06,0.69,4.3e-06,2e-05,1e-05,7.3e-05,2.1e-05,1.4,6.1e-08,0.00079,10000.0,COM,Otto Matic,1446.0,2020-01-04,2023-12-20,608,,,,0.52119,,,,,,,,,
1003671,C/2020 F8 (SWAN),2020 F8,SWAN,C,,0,,11.6,,4.5,,,,,,,,,,JPL 7,2458965.5,58965,2020-04-26.0,J2000,0.9999,6643.0,0.43,110.8,260.03,68.19,360.0,13284.79,1.821e-06,2458997.04,2020-05-27.5,198000000.0,541000.0,0.194,75.4,2.35,-0.288,5.1e-05,5200.0,6.3e-06,0.00074,0.00084,0.0019,6.7e-05,10000.0,2.1e-06,0.00074,230000000.0,COM,Shantanu Naidu,42.0,2020-04-10,2020-05-22,376,,,,0.71527,,1.5e-07,1.6e-08,-2.6e-08,1.1e-08,,,,
1003672,P/2020 G1 (Pimentel),2020 G1,Pimentel,P,Y,0,,17.4,18.5,4.5,5.0,0.03,,,,,,,,JPL 11,2458973.5,58973,2020-05-04.0,J2000,0.8596,3.603,0.506,18.47,240.11,207.64,6.86,6.7,0.1441,2458925.91,2020-03-17.4,2500.0,6.84,0.272,106.0,0.255,2.25,1.7e-05,0.00047,6.5e-06,0.0002,0.00059,0.0015,0.0014,0.00088,2.8e-05,0.0004,0.49,JFc,Otto Matic,97.0,2020-04-13,2020-07-19,490,,,5.0,0.82649,,,,,,,,,
1003677,C/2020 H2 (Pruyne),2020 H2,Pruyne,C,,0,,19.5,20.4,30.5,5.0,0.03,,,,,,,,JPL 11,2458994.5,58994,2020-05-25.0,J2000,0.9954,183.1,0.834,125.04,277.63,26.69,0.01,365.45,0.0003977,2458967.09,2020-04-27.5,905000.0,2480.0,0.131,51.1,1.44,-0.621,0.00014,5.7,4e-06,0.00032,0.0014,0.0027,0.00051,11.0,1.9e-05,0.0013,42000.0,COM,Otto Matic,43.0,2020-04-26,2020-06-08,120,,,,0.72173,,,,,,,,,
1003678,C/2020 H3 (Wierzchos),2020 H3,Wierzchos,C,,0,,7.4,17.0,27.5,5.0,0.03,,,,,,,,JPL 18,2459011.5,59011,2020-06-11.0,J2000,1.0022,-1039.0,2.304,62.37,270.57,29.61,0.0,,2.945e-05,2459004.07,2020-06-03.5,,,1.37,534.0,2.73,0.946,4.1e-05,19.0,1.4e-05,0.00038,0.0003,0.00055,6.2e-06,,8.3e-07,0.0014,,HYP,Otto Matic,123.0,2020-04-25,2020-08-26,131,,,,0.54783,,,,,,,,,
1003679,C/2020 H4 (Leonard),2020 H4,Leonard,C,,0,,16.5,,4.5,,,,,,,,,,JPL 6,2458969.5,58969,2020-04-30.0,J2000,0.9933,140.5,0.938,84.32,307.77,116.77,359.93,280.01,0.000592,2459090.75,2020-08-29.2,608000.0,1660.0,0.257,99.8,0.926,0.156,0.001,21.0,0.00068,0.0072,0.0045,0.058,0.016,42.0,0.00013,0.031,140000.0,COM,Otto Matic,42.0,2020-04-21,2020-06-02,37,,,,0.80262,,,,,,,,,
1003680,C/2020 H5 (Robinson),2020 H5,Robinson,C,,0,,6.6,,8.0,,,,,,,,,,JPL 36,2459416.5,59416,2021-07-21.0,J2000,0.9973,3518.0,9.345,70.22,210.63,326.41,0.0,7026.88,4.723e-06,2459195.63,2020-12-12.1,76200000.0,209000.0,8.48,3300.0,4.5,1.28,2.4e-05,32.0,3e-05,4.7e-05,2.6e-05,0.00019,1.4e-05,65.0,6.5e-08,0.004,1100000.0,COM,Otto Matic,2742.0,2015-12-14,2023-06-17,259,,,,0.48408,,,,,,,,,
1003681,C/2020 H6 (ATLAS),2020 H6,ATLAS,C,,0,,7.4,10.3,8.5,5.0,0.03,,,,,,,,JPL 84,2459585.5,59585,2022-01-06.0,J2000,1.0006,-8228.0,4.703,79.97,213.71,20.34,0.0,,1.32e-06,2459488.55,2021-10-01.0,,,3.75,1460.0,0.603,0.476,3e-06,43.0,1.8e-06,1.1e-05,8.4e-06,3.9e-05,1e-06,,1e-08,0.00033,,HYP,Otto Matic,1356.0,2020-04-22,2024-01-08,2080,,,,0.52699,,,,,,,,,
1003685,C/2020 H7 (Lemmon),2020 H7,Lemmon,C,,0,,11.2,,10.0,,,,,,,,,,JPL 10,2458990.5,58990,2020-05-21.0,J2000,0.9994,7717.0,4.42,135.92,323.53,82.77,360.0,15430.08,1.454e-06,2459004.01,2020-06-03.5,248000000.0,678000.0,3.75,1460.0,1.69,-1.87,0.00015,2000.0,5.2e-05,7.8e-05,0.00069,0.0032,7.5e-06,3900.0,5.5e-07,0.022,94000000.0,COM,Otto Matic,137.0,2020-04-29,2020-09-13,174,,,,0.41502,,,,,,,,,
1003686,C/2020 H8 (PANSTARRS),2020 H8,PANSTARRS,C,,0,,11.1,13.7,9.0,5.0,0.03,,,,,,,,JPL 14,2459024.5,59024,2020-06-24.0,J2000,0.9924,613.1,4.675,99.65,68.41,128.9,0.0,1221.45,6.493e-05,2459004.7,2020-06-04.1,5540000.0,15200.0,3.97,1550.0,0.326,-0.44,3.7e-05,3.0,1.8e-05,6.9e-05,8e-05,0.00056,9.2e-06,5.9,4.7e-07,0.0042,40000.0,COM,Otto Matic,407.0,2020-04-30,2021-06-11,199,,,,0.35384,,,,,,,,,
1003923,C/2020 H11 (PANSTARRS-Lemmon),2020 H11,PANSTARRS-Lemmon,C,,0,,7.4,,11.5,,,,,,,,,,JPL 1,2458934.5,58934,2020-03-26.0,J2000,0.9993,10470.0,7.631,151.41,303.01,91.49,360.0,20934.67,9.198e-07,2459107.98,2020-09-15.4,391000000.0,1070000.0,6.77,2630.0,3.73,-3.01,7.8e-05,1100.0,0.0001,6.5e-05,0.00029,0.0012,2.6e-05,2200.0,1.5e-07,0.017,63000000.0,COM,Otto Matic,706.0,2019-06-02,2021-05-08,53,,,,0.26666,,,,,,,,,
1003683,C/2020 J1 (SONEAR),2020 J1,SONEAR,C,,0,,8.0,10.5,7.5,5.0,0.03,,,,,,,,JPL 77,2459515.5,59515,2021-10-28.0,J2000,1.0004,-9241.0,3.355,142.3,226.58,341.76,0.0,,1.11e-06,2459323.11,2021-04-18.6,,,2.36,920.0,1.89,-1.8,4e-06,100.0,3.6e-06,1.6e-05,1.8e-05,9.5e-05,3.5e-06,,1.8e-08,0.00038,,HYP,Otto Matic,1117.0,2020-05-01,2023-05-23,1423,,,,0.91952,,1.9e-08,1.9e-09,-2.4e-08,1.9e-09,-1.7e-08,5.3e-10,,
1003687,C/2020 K1 (PANSTARRS),2020 K1,PANSTARRS,C,,0,,8.8,,5.5,,,,,,,,,,JPL 107,2459689.5,59689,2022-04-20.0,J2000,0.9999,22890.0,3.074,89.66,94.36,213.98,360.0,45777.66,2.846e-07,2460073.57,2023-05-09.0,1260000000.0,3460000.0,2.19,852.0,1.81,0.013,2.6e-06,450.0,3e-06,9.3e-06,8.4e-06,9.6e-05,3.2e-06,890.0,8.3e-09,0.00038,37000000.0,COM,Otto Matic,1413.0,2020-04-17,2024-02-29,3303,,,,0.39104,,2.2e-08,9.8e-10,-2.3e-08,1.3e-09,,,,
